[{"OBJECT_NAME":"OTTER PUP 2","OBJECT_ID":"2025-135K","EPOCH":"2026-03-09T21:21:10.428192","MEAN_MOTION":15.22839777,"ECCENTRICITY":0.00032963,"INCLINATION":97.4591,"RA_OF_ASC_NODE":184.9166,"ARG_OF_PERICENTER":133.797,"MEAN_ANOMALY":226.3539,"EPHEMERIS_TYPE":0,"CLASSIFICATION_TYPE":"U","NORAD_CAT_ID":64537,"ELEMENT_SET_NO":999,"REV_AT_EPOCH":3976,"BSTAR":0.0012925798,"MEAN_MOTION_DOT":0.00030282,"MEAN_MOTION_DDOT":0},{"OBJECT_NAME":"CZ-4B DEB","OBJECT_ID":"2017-034F","EPOCH":"2026-03-09T21:40:50.869920","MEAN_MOTION":14.94203356,"ECCENTRICITY":0.01269894,"INCLINATION":42.9918,"RA_OF_ASC_NODE":268.1665,"ARG_OF_PERICENTER":296.9238,"MEAN_ANOMALY":61.8675,"EPHEMERIS_TYPE":0,"CLASSIFICATION_TYPE":"U","NORAD_CAT_ID":43430,"ELEMENT_SET_NO":999,"REV_AT_EPOCH":46152,"BSTAR":0.00088597773,"MEAN_MOTION_DOT":0.00011118,"MEAN_MOTION_DDOT":0}]
